[{"OBJECT_NAME":"STARLINK-6244","OBJECT_ID":"2023-065AX","EPOCH":"2026-03-09T22:00:01.999584","MEAN_MOTION":15.12668669,"ECCENTRICITY":0.00022746,"INCLINATION":43.0001,"RA_OF_ASC_NODE":221.6277,"ARG_OF_PERICENTER":280.106,"MEAN_ANOMALY":119.3874,"EPHEMERIS_TYPE":0,"CLASSIFICATION_TYPE":"U","NORAD_CAT_ID":56548,"ELEMENT_SET_NO":999,"REV_AT_EPOCH":577,"BSTAR":0.0065491588,"MEAN_MOTION_DOT":0.00118316,"MEAN_MOTION_DDOT":0},{"OBJECT_NAME":"PIESAT-2 09","OBJECT_ID":"2024-241A","EPOCH":"2026-03-09T23:58:51.117600","MEAN_MOTION":15.13443879,"ECCENTRICITY":0.00016869,"INCLINATION":97.524,"RA_OF_ASC_NODE":17.815,"ARG_OF_PERICENTER":93.7737,"MEAN_ANOMALY":266.3687,"EPHEMERIS_TYPE":0,"CLASSIFICATION_TYPE":"U","NORAD_CAT_ID":62333,"ELEMENT_SET_NO":999,"REV_AT_EPOCH":6779,"BSTAR":0.00033496992,"MEAN_MOTION_DOT":5.923e-5,"MEAN_MOTION_DDOT":0}]
